{
  "norad_id": 48445,
  "name": "STARLINK-2634",
  "history": [
    {
      "epoch": "2026-03-28T17:07:15.276864Z",
      "apogee_km": 476.1656801283507,
      "perigee_km": 474.26730121143464,
      "latitude_deg": 3.138808095965641e-05,
      "longitude_deg": 6.826703132891716,
      "height_km": 475.9377297761352,
      "semi_major_axis_km": 6853.353490669892,
      "eccentricity": 0.0001385,
      "inclination_deg": 53.1602,
      "raan_deg": 89.7702,
      "arg_perigee_deg": 79.2694,
      "mean_anomaly_deg": 280.8463,
      "mean_motion_rev_day": 15.30199524
    },
    {
      "epoch": "2026-03-29T04:05:37.222080Z",
      "apogee_km": 476.1906100602555,
      "perigee_km": 474.1538065635459,
      "latitude_deg": -4.359039441995454e-05,
      "longitude_deg": -160.34012650012005,
      "height_km": 475.89893781016895,
      "semi_major_axis_km": 6853.309208311901,
      "eccentricity": 0.0001486,
      "inclination_deg": 53.1597,
      "raan_deg": 87.6455,
      "arg_perigee_deg": 80.3303,
      "mean_anomaly_deg": 279.7865,
      "mean_motion_rev_day": 15.30214355
    },
    {
      "epoch": "2026-03-30T05:10:28.267680Z",
      "apogee_km": 476.33192450160004,
      "perigee_km": 474.1333635198016,
      "latitude_deg": -2.7345012717930868e-05,
      "longitude_deg": 177.56576252924052,
      "height_km": 476.17976451869396,
      "semi_major_axis_km": 6853.3696440107005,
      "eccentricity": 0.0001604,
      "inclination_deg": 53.1593,
      "raan_deg": 82.7941,
      "arg_perigee_deg": 92.5852,
      "mean_anomaly_deg": 267.5332,
      "mean_motion_rev_day": 15.30194114
    },
    {
      "epoch": "2026-03-30T16:08:50.779680Z",
      "apogee_km": 476.33738930286654,
      "perigee_km": 474.1116916089886,
      "latitude_deg": 9.471913133186431e-06,
      "longitude_deg": 10.397348677060181,
      "height_km": 476.23276124348314,
      "semi_major_axis_km": 6853.361540455928,
      "eccentricity": 0.00016238,
      "inclination_deg": 53.1588,
      "raan_deg": 80.6701,
      "arg_perigee_deg": 95.7121,
      "mean_anomaly_deg": 264.4065,
      "mean_motion_rev_day": 15.30196828
    },
    {
      "epoch": "2026-03-31T15:39:37.944864Z",
      "apogee_km": 476.16959628423956,
      "perigee_km": 474.19309927274026,
      "latitude_deg": 5.538646127958918e-05,
      "longitude_deg": 12.182113817879092,
      "height_km": 475.9418383701739,
      "semi_major_axis_km": 6853.31834777849,
      "eccentricity": 0.0001442,
      "inclination_deg": 53.1587,
      "raan_deg": 76.117,
      "arg_perigee_deg": 82.0183,
      "mean_anomaly_deg": 278.0982,
      "mean_motion_rev_day": 15.30211294
    },
    {
      "epoch": "2026-04-01T05:46:07.488480Z",
      "apogee_km": 476.126837282859,
      "perigee_km": 474.42993163366737,
      "latitude_deg": 3.556099912267584e-05,
      "longitude_deg": 157.24939797536754,
      "height_km": 476.17910580063386,
      "semi_major_axis_km": 6853.415384458263,
      "eccentricity": 0.0001238,
      "inclination_deg": 53.1587,
      "raan_deg": 73.3868,
      "arg_perigee_deg": 90.1861,
      "mean_anomaly_deg": 269.9282,
      "mean_motion_rev_day": 15.30178795
    },
    {
      "epoch": "2026-04-02T08:25:01.562592Z",
      "apogee_km": 475.95829934280755,
      "perigee_km": 474.2543089276678,
      "latitude_deg": 1.9827414566463452e-05,
      "longitude_deg": 111.27146962645837,
      "height_km": 476.2387556430937,
      "semi_major_axis_km": 6853.243304135237,
      "eccentricity": 0.00012432,
      "inclination_deg": 53.1593,
      "raan_deg": 68.2286,
      "arg_perigee_deg": 105.9651,
      "mean_anomaly_deg": 254.1487,
      "mean_motion_rev_day": 15.30236428
    },
    {
      "epoch": "2026-04-03T04:47:43.304064Z",
      "apogee_km": 476.22180495647535,
      "perigee_km": 474.1584052316739,
      "latitude_deg": 2.4287093871430067e-06,
      "longitude_deg": 160.8143288391672,
      "height_km": 475.8617319206493,
      "semi_major_axis_km": 6853.327105094075,
      "eccentricity": 0.00015054,
      "inclination_deg": 53.1596,
      "raan_deg": 64.2823,
      "arg_perigee_deg": 77.3386,
      "mean_anomaly_deg": 282.7783,
      "mean_motion_rev_day": 15.30208361
    },
    {
      "epoch": "2026-04-04T07:26:38.241312Z",
      "apogee_km": 476.19918662506734,
      "perigee_km": 474.27969295181083,
      "latitude_deg": -1.5335979980959457e-05,
      "longitude_deg": 114.8348911950448,
      "height_km": 476.14793036810005,
      "semi_major_axis_km": 6853.376439788439,
      "eccentricity": 0.00014004,
      "inclination_deg": 53.1605,
      "raan_deg": 59.1262,
      "arg_perigee_deg": 90.6294,
      "mean_anomaly_deg": 269.4867,
      "mean_motion_rev_day": 15.30191838
    },
    {
      "epoch": "2026-04-05T03:49:18.828480Z",
      "apogee_km": 476.0946283732392,
      "perigee_km": 474.1951727616779,
      "latitude_deg": 3.843968526100101e-05,
      "longitude_deg": 164.38612482343513,
      "height_km": 476.02727622174234,
      "semi_major_axis_km": 6853.281900567458,
      "eccentricity": 0.00013858,
      "inclination_deg": 53.1613,
      "raan_deg": 55.1834,
      "arg_perigee_deg": 89.0538,
      "mean_anomaly_deg": 271.0622,
      "mean_motion_rev_day": 15.30223501
    },
    {
      "epoch": "2026-04-05T21:03:54.288288Z",
      "apogee_km": 477.12857763373813,
      "perigee_km": 473.2619275768184,
      "latitude_deg": -6.387795457704271e-06,
      "longitude_deg": -98.30681143432207,
      "height_km": 475.79404832652773,
      "semi_major_axis_km": 6853.332252605278,
      "eccentricity": 0.0002821,
      "inclination_deg": 53.1615,
      "raan_deg": 51.8464,
      "arg_perigee_deg": 81.1568,
      "mean_anomaly_deg": 278.9752,
      "mean_motion_rev_day": 15.30206637
    },
    {
      "epoch": "2026-04-06T03:20:07.154880Z",
      "apogee_km": 476.2382223491486,
      "perigee_km": 474.2689690953739,
      "latitude_deg": 1.4879795339813198e-07,
      "longitude_deg": 166.1690724354204,
      "height_km": 475.9037199622224,
      "semi_major_axis_km": 6853.390595722261,
      "eccentricity": 0.00014367,
      "inclination_deg": 53.1616,
      "raan_deg": 50.6334,
      "arg_perigee_deg": 75.4143,
      "mean_anomaly_deg": 284.7017,
      "mean_motion_rev_day": 15.30187097
    },
    {
      "epoch": "2026-04-07T02:50:55.441536Z",
      "apogee_km": 476.24141690703163,
      "perigee_km": 474.1655400760965,
      "latitude_deg": 6.03437326332936e-05,
      "longitude_deg": 167.95195883857033,
      "height_km": 475.7907201757777,
      "semi_major_axis_km": 6853.340478491564,
      "eccentricity": 0.00015145,
      "inclination_deg": 53.1619,
      "raan_deg": 46.0831,
      "arg_perigee_deg": 72.5764,
      "mean_anomaly_deg": 287.5403,
      "mean_motion_rev_day": 15.30203882
    },
    {
      "epoch": "2026-04-07T20:05:30.754464Z",
      "apogee_km": 476.2521611426828,
      "perigee_km": 474.21396888534673,
      "latitude_deg": -2.8719163065710732e-05,
      "longitude_deg": -94.7388975181869,
      "height_km": 475.6449871551947,
      "semi_major_axis_km": 6853.3700650140145,
      "eccentricity": 0.0001487,
      "inclination_deg": 53.1612,
      "raan_deg": 42.7476,
      "arg_perigee_deg": 61.5018,
      "mean_anomaly_deg": 298.6132,
      "mean_motion_rev_day": 15.30193973
    },
    {
      "epoch": "2026-04-08T13:20:05.965440Z",
      "apogee_km": 476.2922854884955,
      "perigee_km": 474.1651378389088,
      "latitude_deg": 2.6367396427641348e-05,
      "longitude_deg": 2.568179390967591,
      "height_km": 475.8797323982577,
      "semi_major_axis_km": 6853.365711663701,
      "eccentricity": 0.00015519,
      "inclination_deg": 53.1641,
      "raan_deg": 39.4095,
      "arg_perigee_deg": 76.5623,
      "mean_anomaly_deg": 283.5551,
      "mean_motion_rev_day": 15.30195431
    },
    {
      "epoch": "2026-04-09T12:50:42.623520Z",
      "apogee_km": 476.28568023297794,
      "perigee_km": 472.71161958341145,
      "latitude_deg": 4.665229125817582e-05,
      "longitude_deg": 4.398120677933579,
      "height_km": 475.1352169337105,
      "semi_major_axis_km": 6852.635649908194,
      "eccentricity": 0.00026078,
      "inclination_deg": 53.1608,
      "raan_deg": 34.8577,
      "arg_perigee_deg": 81.6416,
      "mean_anomaly_deg": 278.4881,
      "mean_motion_rev_day": 15.30439972
    },
    {
      "epoch": "2026-04-10T12:20:36.061728Z",
      "apogee_km": 473.1789176168595,
      "perigee_km": 471.66220417287786,
      "latitude_deg": -3.326389764074871e-05,
      "longitude_deg": 6.40616351129498,
      "height_km": 473.6622275910403,
      "semi_major_axis_km": 6850.557560894868,
      "eccentricity": 0.0001107,
      "inclination_deg": 53.1621,
      "raan_deg": 30.3035,
      "arg_perigee_deg": 116.8588,
      "mean_anomaly_deg": 243.2526,
      "mean_motion_rev_day": 15.31136404
    },
    {
      "epoch": "2026-04-11T20:00:01.000224Z",
      "apogee_km": 471.72588684423226,
      "perigee_km": 469.7520407914608,
      "latitude_deg": 51.531849458817746,
      "longitude_deg": -46.216358077790844,
      "height_km": 475.95890703085405,
      "semi_major_axis_km": 6848.875963817846,
      "eccentricity": 0.0001441,
      "inclination_deg": 53.1596,
      "raan_deg": 24.1614,
      "arg_perigee_deg": 93.3067,
      "mean_anomaly_deg": 344.1896,
      "mean_motion_rev_day": 15.31700346
    },
    {
      "epoch": "2026-04-13T06:00:02.000160Z",
      "apogee_km": 471.69662510538546,
      "perigee_km": 469.88631633200475,
      "latitude_deg": -21.052389095263358,
      "longitude_deg": 69.45002353864034,
      "height_km": 477.0357821054268,
      "semi_major_axis_km": 6848.928470718695,
      "eccentricity": 0.00013216,
      "inclination_deg": 53.1593,
      "raan_deg": 17.5674,
      "arg_perigee_deg": 85.7093,
      "mean_anomaly_deg": 247.8765,
      "mean_motion_rev_day": 15.31682732
    }
  ]
}